COMMENT,ORIGINATOR,NORAD_CAT_ID,OBJECT_NAME,OBJECT_TYPE,CLASSIFICATION_TYPE,INTLDES,EPOCH,EPOCH_MICROSECONDS,MEAN_MOTION,ECCENTRICITY,INCLINATION,RA_OF_ASC_NODE,ARG_OF_PERICENTER,MEAN_ANOMALY,EPHEMERIS_TYPE,ELEMENT_SET_NO,REV_AT_EPOCH,BSTAR,MEAN_MOTION_DOT,MEAN_MOTION_DDOT,FILE,TLE_LINE0,TLE_LINE1,TLE_LINE2,OBJECT_ID,OBJECT_NUMBER,SEMIMAJOR_AXIS,PERIOD,APOGEE,PERIGEE,DECAYED
"GENERATED VIA SPACETRACK.ORG API","18 SPCS","48886","SPACEBEE-102","PAYLOAD","U","21059H","2024-01-11 09:18:10","52640","15.58317586","0.000422","97.6074","161.6768","273.7071","86.3701","0","999","14145","0.0017839","0.00137251","0","4159265","0 SPACEBEE-102","1 48886U 21059H   24011.38761635  .00137251  00000-0  17839-2 0  9997","2 48886  97.6074 161.6768 0004220 273.7071  86.3701 15.58317586141458","2021-059H","48886","6770.663","92.407","395.385","389.671","0"
"GENERATED VIA SPACETRACK.ORG API","18 SPCS","48886","SPACEBEE-102","PAYLOAD","U","21059H","2024-01-11 21:37:52","408128","15.58478072","0.0004217","97.6075","162.2264","274.8898","85.1875","0","999","14153","0.0019008","0.00147317","0","4159545","0 SPACEBEE-102","1 48886U 21059H   24011.90130102  .00147317  00000-0  19008-2 0  9998","2 48886  97.6075 162.2264 0004217 274.8898  85.1875 15.58478072141538","2021-059H","48886","6770.198","92.398","394.918","389.208","0"
"GENERATED VIA SPACETRACK.ORG API","18 SPCS","48886","SPACEBEE-102","PAYLOAD","U","21059H","2024-01-11 23:10:19","880832","15.58497736","0.0004211","97.6075","162.295","274.4663","85.6111","0","999","14154","0.0018881","0.00146424","0","4159766","0 SPACEBEE-102","1 48886U 21059H   24011.96550788  .00146424  00000-0  18881-2 0  9996","2 48886  97.6075 162.2950 0004211 274.4663  85.6111 15.58497736141547","2021-059H","48886","6770.141","92.397","394.857","389.155","0"
"GENERATED VIA SPACETRACK.ORG API","18 SPCS","48886","SPACEBEE-102","PAYLOAD","U","21059H","2024-01-12 08:25:03","225792","15.58619027","0.0004134","97.6077","162.7063","273.0843","86.9939","0","999","14160","0.0018581","0.0014472","0","4160109","0 SPACEBEE-102","1 48886U 21059H   24012.35073178  .00144720  00000-0  18581-2 0  9997","2 48886  97.6077 162.7063 0004134 273.0843  86.9939 15.58619027141606","2021-059H","48886","6769.790","92.389","394.454","388.856","0"
"GENERATED VIA SPACETRACK.ORG API","18 SPCS","48886","SPACEBEE-102","PAYLOAD","U","21059H","2024-01-12 22:17:03","823008","15.58787119","0.0004178","97.6074","163.3242","274.9481","85.1297","0","999","14169","0.0019295","0.00151362","0","4160399","0 SPACEBEE-102","1 48886U 21059H   24012.92851647  .00151362  00000-0  19295-2 0  9998","2 48886  97.6074 163.3242 0004178 274.9481  85.1297 15.58787119141690","2021-059H","48886","6769.303","92.380","393.996","388.340","0"
"GENERATED VIA SPACETRACK.ORG API","18 SPCS","48886","SPACEBEE-102","PAYLOAD","U","21059H","2024-01-12 22:17:03","823008","15.58787119","0.0004178","97.6074","163.3242","274.9481","85.1297","0","999","14169","0.0019295","0.00151362","0","4160639","0 SPACEBEE-102","1 48886U 21059H   24012.92851647  .00151362  00000-0  19295-2 0  9998","2 48886  97.6074 163.3242 0004178 274.9481  85.1297 15.58787119141690","2021-059H","48886","6769.303","92.380","393.996","388.340","0"
"GENERATED VIA SPACETRACK.ORG API","18 SPCS","48886","SPACEBEE-102","PAYLOAD","U","21059H","2024-01-13 09:04:07","52160","15.58923803","0.0004145","97.6076","163.8043","273.876","86.2021","0","999","14176","0.0018737","0.00147671","0","4160970","0 SPACEBEE-102","1 48886U 21059H   24013.37785940  .00147671  00000-0  18737-2 0  9998","2 48886  97.6076 163.8043 0004145 273.8760  86.2021 15.58923803141765","2021-059H","48886","6768.908","92.371","393.578","387.967","0"
"GENERATED VIA SPACETRACK.ORG API","18 SPCS","48886","SPACEBEE-102","PAYLOAD","U","21059H","2024-01-13 22:55:57","647712","15.59103713","0.0004143","97.6079","164.4225","274.6313","85.447","0","999","14185","0.0020412","0.00162267","0","4161464","0 SPACEBEE-102","1 48886U 21059H   24013.95552833  .00162267  00000-0  20412-2 0  9996","2 48886  97.6079 164.4225 0004143 274.6313  85.4470 15.59103713141858","2021-059H","48886","6768.387","92.361","393.056","387.448","0"
"GENERATED VIA SPACETRACK.ORG API","18 SPCS","48886","SPACEBEE-102","PAYLOAD","U","21059H","2024-01-14 09:42:52","890048","15.59248899","0.0004085","97.6081","164.9028","274.1879","85.891","0","999","14192","0.0019279","0.00153935","0","4161833","0 SPACEBEE-102","1 48886U 21059H   24014.40477882  .00153935  00000-0  19279-2 0  9998","2 48886  97.6081 164.9028 0004085 274.1879  85.8910 15.59248899141920","2021-059H","48886","6767.967","92.352","392.596","387.067","0"
"GENERATED VIA SPACETRACK.ORG API","18 SPCS","48886","SPACEBEE-102","PAYLOAD","U","21059H","2024-01-14 22:02:08","577312","15.59428811","0.0004191","97.6076","165.4522","276.6345","83.4434","0","999","14200","0.0021867","0.00176291","0","4162100","0 SPACEBEE-102","1 48886U 21059H   24014.91815483  .00176291  00000-0  21867-2 0  9993","2 48886  97.6076 165.4522 0004191 276.6345  83.4434 15.59428811142001","2021-059H","48886","6767.446","92.342","392.147","386.475","0"
"GENERATED VIA SPACETRACK.ORG API","18 SPCS","48886","SPACEBEE-102","PAYLOAD","U","21059H","2024-01-14 23:34:32","701152","15.59447361","0.0004104","97.6076","165.5212","275.3468","84.7319","0","999","14201","0.0021401","0.00172572","0","4162299","0 SPACEBEE-102","1 48886U 21059H   24014.98232293  .00172572  00000-0  21401-2 0  9994","2 48886  97.6076 165.5212 0004104 275.3468  84.7319 15.59447361142012","2021-059H","48886","6767.392","92.340","392.035","386.480","0"
"GENERATED VIA SPACETRACK.ORG API","18 SPCS","48886","SPACEBEE-102","PAYLOAD","U","21059H","2024-01-15 08:48:55","494144","15.59594051","0.0004056","97.6076","165.9329","274.6173","85.462","0","999","14207","0.0022022","0.00178703","0","4162606","0 SPACEBEE-102","1 48886U 21059H   24015.36730896  .00178703  00000-0  22022-2 0  9991","2 48886  97.6076 165.9329 0004056 274.6173  85.4620 15.59594051142074","2021-059H","48886","6766.968","92.332","391.578","386.088","0"
"GENERATED VIA SPACETRACK.ORG API","18 SPCS","48886","SPACEBEE-102","PAYLOAD","U","21059H","2024-01-15 08:48:55","494144","15.59594051","0.0004056","97.6076","165.9329","274.6173","85.462","0","999","14207","0.0022022","0.00178703","0","4162722","0 SPACEBEE-102","1 48886U 21059H   24015.36730896  .00178703  00000-0  22022-2 0  9991","2 48886  97.6076 165.9329 0004056 274.6173  85.4620 15.59594051142074","2021-059H","48886","6766.968","92.332","391.578","386.088","0"
"GENERATED VIA SPACETRACK.ORG API","18 SPCS","48886","SPACEBEE-102","PAYLOAD","U","21059H","2024-01-15 22:40:24","536352","15.59781938","0.0004068","97.6074","166.5516","276.7085","83.3708","0","999","14216","0.0020431","0.0016672","0","4163182","0 SPACEBEE-102","1 48886U 21059H   24015.94472843  .00166720  00000-0  20431-2 0  9998","2 48886  97.6074 166.5516 0004068 276.7085  83.3708 15.59781938142161","2021-059H","48886","6766.425","92.321","391.042","385.537","0"
"GENERATED VIA SPACETRACK.ORG API","18 SPCS","48886","SPACEBEE-102","PAYLOAD","U","21059H","2024-01-16 09:27:02","616192","15.59946724","0.0004054","97.6075","167.0322","275.3473","84.7321","0","999","14223","0.0021295","0.00175043","0","4163385","0 SPACEBEE-102","1 48886U 21059H   24016.39378028  .00175043  00000-0  21295-2 0  9995","2 48886  97.6075 167.0322 0004054 275.3473  84.7321 15.59946724142234","2021-059H","48886","6765.948","92.311","390.556","385.070","0"
"GENERATED VIA SPACETRACK.ORG API","18 SPCS","48886","SPACEBEE-102","PAYLOAD","U","21059H","2024-01-16 09:27:02","616192","15.59946724","0.0004054","97.6075","167.0322","275.3473","84.7321","0","999","14223","0.0021295","0.00175043","0","4163580","0 SPACEBEE-102","1 48886U 21059H   24016.39378028  .00175043  00000-0  21295-2 0  9995","2 48886  97.6075 167.0322 0004054 275.3473  84.7321 15.59946724142234","2021-059H","48886","6765.948","92.311","390.556","385.070","0"
"GENERATED VIA SPACETRACK.ORG API","18 SPCS","48886","SPACEBEE-102","PAYLOAD","U","21059H","2024-01-16 21:45:58","642272","15.60116901","0.0004034","97.6074","167.5821","273.0963","86.9831","0","999","14231","0.0020836","0.00172318","0","4163878","0 SPACEBEE-102","1 48886U 21059H   24016.90692873  .00172318  00000-0  20836-2 0  9991","2 48886  97.6074 167.5821 0004034 273.0963  86.9831 15.60116901142316","2021-059H","48886","6765.456","92.301","390.050","384.592","0"
"GENERATED VIA SPACETRACK.ORG API","18 SPCS","48886","SPACEBEE-102","PAYLOAD","U","21059H","2024-01-17 08:32:28","608288","15.6026877","0.0003966","97.6073","168.0632","272.3555","87.7247","0","999","14238","0.0019991","0.00166154","0","4164369","0 SPACEBEE-102","1 48886U 21059H   24017.35588667  .00166154  00000-0  19991-2 0  9997","2 48886  97.6073 168.0632 0003966 272.3555  87.7247 15.60268770142382","2021-059H","48886","6765.017","92.292","389.565","384.199","0"
"GENERATED VIA SPACETRACK.ORG API","18 SPCS","48886","SPACEBEE-102","PAYLOAD","U","21059H","2024-01-17 08:32:28","608288","15.6026877","0.0003966","97.6073","168.0632","272.3555","87.7247","0","999","14238","0.0019991","0.00166154","0","4164412","0 SPACEBEE-102","1 48886U 21059H   24017.35588667  .00166154  00000-0  19991-2 0  9997","2 48886  97.6073 168.0632 0003966 272.3555  87.7247 15.60268770142382","2021-059H","48886","6765.017","92.292","389.565","384.199","0"
"GENERATED VIA SPACETRACK.ORG API","18 SPCS","48886","SPACEBEE-102","PAYLOAD","U","21059H","2024-01-17 22:23:36","244032","15.60448977","0.0003823","97.6067","168.6816","272.0271","88.0547","0","999","14247","0.0019703","0.00164855","0","4164693","0 SPACEBEE-102","1 48886U 21059H   24017.93305838  .00164855  00000-0  19703-2 0  9995","2 48886  97.6067 168.6816 0003823 272.0271  88.0547 15.60448977142475","2021-059H","48886","6764.496","92.281","388.947","383.775","0"
